QIANFAN-97              
1 66039U 25233G   25349.19933841  .00000042  00000+0  28548-4 0  9996
2 66039  88.9961  61.8979 0017393  43.0817 317.1708 13.78851448  8311
QIANFAN-98              
1 66040U 25233H   25349.22438206  .00000057  00000+0  32744-4 0  9996
2 66040  89.0044  61.8427 0016057  31.3760 328.8370 13.94058783  8355
QIANFAN-99              
1 66041U 25233J   25349.34888539  .00000040  00000+0  27580-4 0  9992
2 66041  88.9961  61.8822 0017107  37.8703 322.3663 13.76946689  8339
QIANFAN-100             
1 66042U 25233K   25349.33145340  .00000050  00000+0  30917-4 0  9997
2 66042  88.9959  61.8237 0017053  42.4165 317.8322 13.87628798  8365
QIANFAN-101             
1 66043U 25233L   25349.33147858  .00000275  00000+0  10748-3 0  9992
2 66043  88.9961  61.7319 0015760  34.7335 325.4885 14.26677525  8416
QIANFAN-102             
1 66044U 25233M   25349.36081404  .00000044  00000+0  28468-4 0  9993
2 66044  88.9955  61.8661 0015684  41.4695 318.7661 13.82091296  8345
QIANFAN-103             
1 66045U 25233N   25349.21821632  .00000042  00000+0  28203-4 0  9998
2 66045  88.9965  61.8987 0016470  37.8587 322.3735 13.78530198  8315
QIANFAN-104             
1 66046U 25233P   25349.37035401  .00000041  00000+0  26303-4 0  9995
2 66046  88.9961  61.8670 0015254  42.4071 317.8273 13.80914527  8344
